{"fetched_at":"2026-03-29T16:36:15Z","count":15609,"tles":[{"name":"STARLINK-31031","line1":"1 58711U 24002G   26087.43547922  .00000292  00000+0  21989-4 0  9994","line2":"2 58711  53.1611 142.9944 0001955 108.5919 251.5294 15.30193947124880","category":"Starlink"}]}